[{"OBJECT_NAME":"STARLINK-3330","OBJECT_ID":"2022-001AK","EPOCH":"2026-03-09T14:50:04.034400","MEAN_MOTION":15.08839591,"ECCENTRICITY":8.85e-5,"INCLINATION":53.2181,"RA_OF_ASC_NODE":179.2216,"ARG_OF_PERICENTER":80.3786,"MEAN_ANOMALY":279.7306,"EPHEMERIS_TYPE":0,"CLASSIFICATION_TYPE":"U","NORAD_CAT_ID":50836,"ELEMENT_SET_NO":999,"REV_AT_EPOCH":23015,"BSTAR":5.6625e-5,"MEAN_MOTION_DOT":6.14e-6,"MEAN_MOTION_DDOT":0},{"OBJECT_NAME":"CZ-4C R\/B","OBJECT_ID":"2012-066D","EPOCH":"2026-03-09T22:13:57.605952","MEAN_MOTION":13.71953349,"ECCENTRICITY":0.06158717,"INCLINATION":63.3882,"RA_OF_ASC_NODE":348.5087,"ARG_OF_PERICENTER":10.8771,"MEAN_ANOMALY":350.4906,"EPHEMERIS_TYPE":0,"CLASSIFICATION_TYPE":"U","NORAD_CAT_ID":39014,"ELEMENT_SET_NO":999,"REV_AT_EPOCH":66492,"BSTAR":0.00035049571,"MEAN_MOTION_DOT":1.149e-5,"MEAN_MOTION_DDOT":0}]
